     2.100          NAVIGATION                              RINEX VERSION / TYPE
fic2rin                                 10/24/2017 00:08:55 PGM / RUN BY / DATE
                                                            END OF HEADER
19 17 10 23 13 59 44.0 -.479652080685D-03  .204636307899D-11  .000000000000D+00
     .150000000000D+02 -.942187500000D+02  .399016620644D-08  .132666098528D+01
    -.486150383949D-05  .990493618883D-02  .965036451817D-05  .515368793488D+04
     .136784000000D+06 -.184401869774D-06  .179628409147D+00 -.242143869400D-07
     .978872447018D+00  .207093750000D+03  .108533058145D+01 -.785032699763D-08
    -.371444043564D-10  .100000000000D+01  .197200000000D+04  .000000000000D+00
     .240000000000D+01  .000000000000D+00 -.153668224812D-07  .150000000000D+02
     .133656000000D+06  .400000000000D+01
10 17 10 23 13 59 44.0  .951974652708D-04  .841282599140D-11  .000000000000D+00
     .400000000000D+01 -.139375000000D+02  .498306470750D-08  .446932168610D+00
    -.786036252975D-06  .286611577030D-02  .519677996635D-05  .515366346931D+04
     .136784000000D+06 -.931322574615D-08  .217549728480D+01 -.279396772385D-07
     .960206604185D+00  .276281250000D+03 -.288279854669D+01 -.830034574272D-08
    -.271797035723D-09  .100000000000D+01  .197200000000D+04  .000000000000D+00
     .240000000000D+01  .000000000000D+00  .186264514923D-08  .400000000000D+01
     .134646000000D+06  .400000000000D+01
10 17 10 23 15 59 44.0  .952580012381D-04  .841282599140D-11  .000000000000D+00
     .500000000000D+01 -.996875000000D+01  .504056710271D-08  .149696202479D+01
    -.433996319771D-06  .286655349191D-02  .547803938389D-05  .515366465759D+04
     .143984000000D+06  .968575477600D-07  .217543667610D+01  .987201929092D-07
     .960204926218D+00  .273812500000D+03 -.288263777492D+01 -.834141888215D-08
    -.140362989539D-09  .100000000000D+01  .197200000000D+04  .000000000000D+00
     .240000000000D+01  .000000000000D+00  .186264514923D-08  .500000000000D+01
     .136806000000D+06  .400000000000D+01
19 17 10 23 15 59 44.0 -.479637179524D-03  .204636307899D-11  .000000000000D+00
     .160000000000D+02 -.101187500000D+03  .391444876679D-08  .237680852005D+01
    -.527128577232D-05  .990539533086D-02  .952184200287D-05  .515368806267D+04
     .143984000000D+06  .428408384323D-07  .179572452531D+00 -.156462192535D-06
     .978873438876D+00  .204625000000D+03  .108535063074D+01 -.760638826517D-08
     .357157734196D-12  .100000000000D+01  .197200000000D+04  .000000000000D+00
     .240000000000D+01  .000000000000D+00 -.153668224812D-07  .160000000000D+02
     .136806000000D+06  .400000000000D+01
 1 17 10 23 16  0  0.0 -.589620321989D-05 -.227373675443D-11  .000000000000D+00
     .640000000000D+02  .128125000000D+02  .437411077070D-08 -.279827547470D+01
     .502914190292D-06  .707692280412D-02  .945292413235D-05  .515367854881D+04
     .144000000000D+06 -.353902578354D-07  .113599700533D+01 -.117346644402D-06
     .968637686345D+00  .201906250000D+03  .631767584501D+00 -.778889586735D-08
     .555023118941D-09  .100000000000D+01  .197200000000D+04  .000000000000D+00
     .240000000000D+01  .000000000000D+00  .558793544769D-08  .640000000000D+02
     .136806000000D+06  .400000000000D+01
 2 17 10 23 16  0  0.0  .299193896353D-03 -.943600753089D-11  .000000000000D+00
     .140000000000D+02 -.365625000000D+01  .478055627221D-08 -.237677872919D+01
    -.175088644028D-06  .171812376939D-01  .903755426407D-05  .515360763168D+04
     .144000000000D+06  .271946191788D-06  .107943105269D+01  .298023223877D-07
     .947664442805D+00  .193187500000D+03 -.194643092992D+01 -.780996817367D-08
     .630026243122D-09  .100000000000D+01  .197200000000D+04  .000000000000D+00
     .240000000000D+01  .000000000000D+00 -.204890966415D-07  .140000000000D+02
     .136806000000D+06  .400000000000D+01
 3 17 10 23 16  0  0.0 -.521568581462D-04  .500222085975D-11  .000000000000D+00
     .180000000000D+02 -.104062500000D+02  .493020536284D-08  .244718459344D+01
    -.571832060814D-06  .107649934944D-02  .566430389881D-05  .515362612724D+04
     .144000000000D+06 -.428408384323D-07  .217904367764D+01 -.186264514923D-08
     .960073380624D+00  .268406250000D+03  .551328447283D+00 -.816141138411D-08
    -.132505519387D-09  .100000000000D+01  .197200000000D+04  .000000000000D+00
     .240000000000D+01  .000000000000D+00  .232830643654D-08  .180000000000D+02
     .136806000000D+06  .400000000000D+01
 5 17 10 23 16  0  0.0 -.250698067248D-04  .125055521494D-11  .000000000000D+00
     .260000000000D+02 -.821875000000D+01  .531700718898D-08  .136894260641D+00
    -.327825546265D-06  .525954947807D-02  .536814332008D-05  .515356855583D+04
     .144000000000D+06  .931322574615D-08  .216018487152D+01  .391155481339D-07
     .946988342048D+00  .265937500000D+03  .613661792060D+00 -.844499462507D-08
    -.130719730716D-09  .100000000000D+01  .197200000000D+04  .000000000000D+00
     .240000000000D+01  .000000000000D+00 -.107102096081D-07  .260000000000D+02
     .136806000000D+06  .400000000000D+01
 6 17 10 23 16  0  0.0  .406136270612D-03  .216004991671D-11  .000000000000D+00
     .580000000000D+02 -.256250000000D+01  .444161358246D-08 -.253448651343D+01
    -.279396772385D-07  .580754945986D-03  .929087400436D-05  .515377005386D+04
     .144000000000D+06 -.558793544769D-08  .112764372993D+01  .502914190292D-07
     .968393346841D+00  .204406250000D+03 -.123503608238D+01 -.785211278630D-08
     .529664919813D-09  .100000000000D+01  .197200000000D+04  .000000000000D+00
     .240000000000D+01  .000000000000D+00  .465661287308D-08  .580000000000D+02
     .136806000000D+06  .400000000000D+01
 7 17 10 23 16  0  0.0  .289371702820D-03 -.511590769747D-11  .000000000000D+00
     .220000000000D+02  .113250000000D+03  .430839374761D-08  .284421438225D+01
     .567361712456D-05  .110704520484D-01  .699795782566D-05  .515372272873D+04
     .144000000000D+06 -.335276126862D-07 -.199101711808D+01 -.126659870148D-06
     .960661963770D+00  .244031250000D+03 -.254931273174D+01 -.790568644643D-08
     .178936024832D-09  .100000000000D+01  .197200000000D+04  .000000000000D+00
     .240000000000D+01  .000000000000D+00 -.111758708954D-07  .220000000000D+02
     .136806000000D+06  .400000000000D+01
 8 17 10 23 16  0  0.0 -.780243426561D-04 -.136424205266D-11  .000000000000D+00
     .200000000000D+02 -.852187500000D+02  .419588906134D-08 -.734888792554D-01
    -.452809035778D-05  .273818848655D-02  .902265310287D-05  .515370992088D+04
     .144000000000D+06 -.167638063431D-07  .725767849430D-01 -.521540641785D-07
     .968211092118D+00  .207187500000D+03 -.634915348258D+00 -.793675916931D-08
    -.317870383435D-10  .100000000000D+01  .197200000000D+04  .000000000000D+00
     .240000000000D+01  .000000000000D+00  .558793544769D-08  .200000000000D+02
     .136806000000D+06  .400000000000D+01
 9 17 10 23 16  0  0.0  .461919698864D-03  .522959453519D-11  .000000000000D+00
     .158000000000D+03  .174687500000D+02  .458626246481D-08 -.364493522275D+00
     .843778252602D-06  .916578457691D-03  .101476907730D-04  .515375511169D+04
     .144000000000D+06  .353902578354D-07 -.306920721687D+01 -.372529029846D-08
     .953619016780D+00  .178718750000D+03  .178042177899D+01 -.797354641593D-08
    -.475734101949D-09  .100000000000D+01  .197200000000D+04  .000000000000D+00
     .340000000000D+01  .000000000000D+00  .931322574615D-09  .158000000000D+03
     .136806000000D+06  .400000000000D+01
11 17 10 23 16  0  0.0 -.722804106772D-03 -.193267624127D-11  .000000000000D+00
     .143000000000D+03 -.213125000000D+02  .556451749877D-08  .286263251063D+01
    -.123120844364D-05  .169971436262D-01  .103544443846D-04  .515374144936D+04
     .144000000000D+06  .257045030594D-06  .723453179483D+00 -.260770320892D-07
     .902691897975D+00  .143312500000D+03  .171124300019D+01 -.820605610089D-08
     .329656588663D-09  .100000000000D+01  .197200000000D+04  .000000000000D+00
     .340000000000D+01  .000000000000D+00 -.121071934700D-07  .143000000000D+03
     .136806000000D+06  .400000000000D+01
12 17 10 23 16  0  0.0  .367922708392D-03 -.159161572810D-11  .000000000000D+00
     .310000000000D+02 -.201562500000D+02  .400230956940D-08  .224539136764D+01
    -.113435089588D-05  .655500486027D-02  .275485217571D-05  .515369905090D+04
     .144000000000D+06 -.428408384323D-07 -.902790097814D+00 -.819563865662D-07
     .988199389488D+00  .340000000000D+03  .911417007651D+00 -.802533428739D-08
    -.285726187357D-10  .100000000000D+01  .197200000000D+04  .000000000000D+00
     .240000000000D+01  .000000000000D+00 -.125728547573D-07  .310000000000D+02
     .136806000000D+06  .400000000000D+01
13 17 10 23 16  0  0.0 -.931220129132D-04 -.454747350886D-12  .000000000000D+00
     .170000000000D+02  .218437500000D+02  .413874382386D-08 -.214599076988D+01
     .107474625111D-05  .355133903213D-02  .108107924461D-04  .515366169548D+04
     .144000000000D+06  .596046447754D-07 -.294081333243D+01  .242143869400D-07
     .969546973317D+00  .176781250000D+03  .170381737138D+01 -.769317759458D-08
    -.481448625696D-09  .100000000000D+01  .197200000000D+04  .000000000000D+00
     .240000000000D+01  .000000000000D+00 -.116415321827D-07  .170000000000D+02
     .136806000000D+06  .400000000000D+01
14 17 10 23 16  0  0.0 -.869035720825D-04 -.909494701773D-12  .000000000000D+00
     .180000000000D+02  .213125000000D+02  .440161191623D-08 -.911578762503D+00
     .108778476715D-05  .929689104669D-02  .101905316114D-04  .515371210861D+04
     .144000000000D+06 -.633299350739D-07 -.298124794634D+01  .225380063057D-06
     .962078650712D+00  .186343750000D+03 -.194777594558D+01 -.800783355841D-08
    -.457161899771D-09  .100000000000D+01  .197200000000D+04  .000000000000D+00
     .240000000000D+01  .000000000000D+00 -.977888703346D-08  .180000000000D+02
     .136806000000D+06  .400000000000D+01
